[{"OBJECT_NAME":"LEMUR-1","OBJECT_ID":"2014-033AL","EPOCH":"2026-03-29T04:20:46.488768","MEAN_MOTION":14.84896245,"ECCENTRICITY":0.0048033,"INCLINATION":97.7751,"RA_OF_ASC_NODE":239.8315,"ARG_OF_PERICENTER":342.177,"MEAN_ANOMALY":17.7758,"EPHEMERIS_TYPE":0,"CLASSIFICATION_TYPE":"U","NORAD_CAT_ID":40044,"ELEMENT_SET_NO":999,"REV_AT_EPOCH":63359,"BSTAR":0.00034988,"MEAN_MOTION_DOT":2.983e-5,"MEAN_MOTION_DDOT":0},{"OBJECT_NAME":"LEMUR-2-GREENBERG","OBJECT_ID":"2017-042N","EPOCH":"2026-03-29T00:55:01.586784","MEAN_MOTION":15.28713065,"ECCENTRICITY":0.0008077,"INCLINATION":97.3793,"RA_OF_ASC_NODE":269.1944,"ARG_OF_PERICENTER":289.6224,"MEAN_ANOMALY":70.4144,"EPHEMERIS_TYPE":0,"CLASSIFICATION_TYPE":"U","NORAD_CAT_ID":42837,"ELEMENT_SET_NO":999,"REV_AT_EPOCH":47613,"BSTAR":0.00075609,"MEAN_MOTION_DOT":0.00021088,"MEAN_MOTION_DDOT":0},{"OBJECT_NAME":"LEMUR-2-ANDIS","OBJECT_ID":"2017-042P","EPOCH":"2026-03-28T23:17:56.605920","MEAN_MOTION":15.31474135,"ECCENTRICITY":0.0008386,"INCLINATION":97.3673,"RA_OF_ASC_NODE":269.0721,"ARG_OF_PERICENTER":290.5432,"MEAN_ANOMALY":69.4909,"EPHEMERIS_TYPE":0,"CLASSIFICATION_TYPE":"U","NORAD_CAT_ID":42838,"ELEMENT_SET_NO":999,"REV_AT_EPOCH":47616,"BSTAR":0.0008621,"MEAN_MOTION_DOT":0.00026213,"MEAN_MOTION_DDOT":0},{"OBJECT_NAME":"LEMUR-2-MONSON","OBJECT_ID":"2017-042Q","EPOCH":"2026-03-29T00:16:10.189920","MEAN_MOTION":15.25653737,"ECCENTRICITY":0.0005736,"INCLINATION":97.4048,"RA_OF_ASC_NODE":269.2483,"ARG_OF_PERICENTER":275.3292,"MEAN_ANOMALY":84.7292,"EPHEMERIS_TYPE":0,"CLASSIFICATION_TYPE":"U","NORAD_CAT_ID":42839,"ELEMENT_SET_NO":999,"REV_AT_EPOCH":47593,"BSTAR":0.00072869,"MEAN_MOTION_DOT":0.00018507,"MEAN_MOTION_DDOT":0},{"OBJECT_NAME":"LEMUR-2-FURIAUS","OBJECT_ID":"2017-042R","EPOCH":"2026-03-28T23:14:33.247968","MEAN_MOTION":15.27189754,"ECCENTRICITY":0.0006799,"INCLINATION":97.3756,"RA_OF_ASC_NODE":267.274,"ARG_OF_PERICENTER":348.6881,"MEAN_ANOMALY":11.4204,"EPHEMERIS_TYPE":0,"CLASSIFICATION_TYPE":"U","NORAD_CAT_ID":42840,"ELEMENT_SET_NO":999,"REV_AT_EPOCH":47595,"BSTAR":0.0010018,"MEAN_MOTION_DOT":0.00026712,"MEAN_MOTION_DDOT":0},{"OBJECT_NAME":"LEMUR-2-PETERG","OBJECT_ID":"2017-042S","EPOCH":"2026-03-28T18:35:21.793056","MEAN_MOTION":15.30554708,"ECCENTRICITY":0.00032401,"INCLINATION":97.3989,"RA_OF_ASC_NODE":272.8737,"ARG_OF_PERICENTER":257.6169,"MEAN_ANOMALY":102.4709,"EPHEMERIS_TYPE":0,"CLASSIFICATION_TYPE":"U","NORAD_CAT_ID":42841,"ELEMENT_SET_NO":999,"REV_AT_EPOCH":47612,"BSTAR":0.00092468158,"MEAN_MOTION_DOT":0.00027311,"MEAN_MOTION_DDOT":0},{"OBJECT_NAME":"LEMUR-2-DEMBITZ","OBJECT_ID":"2017-042T","EPOCH":"2026-03-29T01:32:36.988800","MEAN_MOTION":15.27692962,"ECCENTRICITY":0.0005885,"INCLINATION":97.3815,"RA_OF_ASC_NODE":270.3073,"ARG_OF_PERICENTER":302.657,"MEAN_ANOMALY":57.4101,"EPHEMERIS_TYPE":0,"CLASSIFICATION_TYPE":"U","NORAD_CAT_ID":42842,"ELEMENT_SET_NO":999,"REV_AT_EPOCH":47610,"BSTAR":0.00082548,"MEAN_MOTION_DOT":0.00022319,"MEAN_MOTION_DDOT":0},{"OBJECT_NAME":"LEMUR-2-ZACHARY","OBJECT_ID":"2017-042W","EPOCH":"2026-03-28T23:30:17.757216","MEAN_MOTION":15.43685183,"ECCENTRICITY":0.0003096,"INCLINATION":97.3655,"RA_OF_ASC_NODE":278.284,"ARG_OF_PERICENTER":300.4993,"MEAN_ANOMALY":59.5949,"EPHEMERIS_TYPE":0,"CLASSIFICATION_TYPE":"U","NORAD_CAT_ID":42845,"ELEMENT_SET_NO":999,"REV_AT_EPOCH":47680,"BSTAR":0.0010038,"MEAN_MOTION_DOT":0.0004539,"MEAN_MOTION_DDOT":0},{"OBJECT_NAME":"LEMUR-2-JIN-LUEN","OBJECT_ID":"2018-014C","EPOCH":"2026-03-28T19:00:14.090400","MEAN_MOTION":15.92980067,"ECCENTRICITY":0.00098685,"INCLINATION":97.5392,"RA_OF_ASC_NODE":20.0114,"ARG_OF_PERICENTER":141.836,"MEAN_ANOMALY":218.3615,"EPHEMERIS_TYPE":0,"CLASSIFICATION_TYPE":"U","NORAD_CAT_ID":43182,"ELEMENT_SET_NO":999,"REV_AT_EPOCH":44849,"BSTAR":0.0018991205,"MEAN_MOTION_DOT":0.00658614,"MEAN_MOTION_DDOT":0.00017900163},{"OBJECT_NAME":"LEMUR-2-KADI","OBJECT_ID":"2018-014E","EPOCH":"2026-03-28T18:33:58.235616","MEAN_MOTION":15.6820586,"ECCENTRICITY":0.0005144,"INCLINATION":97.464,"RA_OF_ASC_NODE":13.6075,"ARG_OF_PERICENTER":130.977,"MEAN_ANOMALY":229.1937,"EPHEMERIS_TYPE":0,"CLASSIFICATION_TYPE":"U","NORAD_CAT_ID":43184,"ELEMENT_SET_NO":999,"REV_AT_EPOCH":44837,"BSTAR":0.0011976439,"MEAN_MOTION_DOT":0.00135429,"MEAN_MOTION_DDOT":0},{"OBJECT_NAME":"LEMUR-2-AMANDA-SVANTE","OBJECT_ID":"2021-034B","EPOCH":"2026-03-29T03:32:04.066656","MEAN_MOTION":15.29636298,"ECCENTRICITY":0.0004103,"INCLINATION":97.5808,"RA_OF_ASC_NODE":164.6008,"ARG_OF_PERICENTER":155.85,"MEAN_ANOMALY":204.2933,"EPHEMERIS_TYPE":0,"CLASSIFICATION_TYPE":"U","NORAD_CAT_ID":48269,"ELEMENT_SET_NO":999,"REV_AT_EPOCH":26880,"BSTAR":0.0012256,"MEAN_MOTION_DOT":0.00035252,"MEAN_MOTION_DDOT":0},{"OBJECT_NAME":"LEMUR-2-SPECIAL-K","OBJECT_ID":"2021-034F","EPOCH":"2026-03-29T04:30:49.216032","MEAN_MOTION":15.48389101,"ECCENTRICITY":0.0002295,"INCLINATION":97.569,"RA_OF_ASC_NODE":170.3791,"ARG_OF_PERICENTER":193.6334,"MEAN_ANOMALY":166.4855,"EPHEMERIS_TYPE":0,"CLASSIFICATION_TYPE":"U","NORAD_CAT_ID":48273,"ELEMENT_SET_NO":999,"REV_AT_EPOCH":26925,"BSTAR":0.0021523,"MEAN_MOTION_DOT":0.00115446,"MEAN_MOTION_DDOT":0},{"OBJECT_NAME":"LEMUR-2-EMBRIONOVIS","OBJECT_ID":"2023-084AQ","EPOCH":"2026-03-28T21:39:06.921216","MEAN_MOTION":15.35293296,"ECCENTRICITY":0.0008357,"INCLINATION":97.616,"RA_OF_ASC_NODE":229.209,"ARG_OF_PERICENTER":235.0643,"MEAN_ANOMALY":124.9815,"EPHEMERIS_TYPE":0,"CLASSIFICATION_TYPE":"U","NORAD_CAT_ID":56970,"ELEMENT_SET_NO":999,"REV_AT_EPOCH":15535,"BSTAR":0.00056165,"MEAN_MOTION_DOT":0.00019211,"MEAN_MOTION_DDOT":0},{"OBJECT_NAME":"LEMUR-2-MANO","OBJECT_ID":"2023-100E","EPOCH":"2026-03-29T00:36:33.950880","MEAN_MOTION":15.66947187,"ECCENTRICITY":0.0006088,"INCLINATION":99.4495,"RA_OF_ASC_NODE":117.0609,"ARG_OF_PERICENTER":191.7397,"MEAN_ANOMALY":168.3716,"EPHEMERIS_TYPE":0,"CLASSIFICATION_TYPE":"U","NORAD_CAT_ID":57390,"ELEMENT_SET_NO":999,"REV_AT_EPOCH":14950,"BSTAR":0.0018094,"MEAN_MOTION_DOT":0.00196114,"MEAN_MOTION_DDOT":0},{"OBJECT_NAME":"LEMUR-2-DEVERILL-M-T","OBJECT_ID":"2023-100F","EPOCH":"2026-03-28T22:36:05.154912","MEAN_MOTION":15.35838337,"ECCENTRICITY":0.0005791,"INCLINATION":99.4562,"RA_OF_ASC_NODE":103.7935,"ARG_OF_PERICENTER":318.6748,"MEAN_ANOMALY":41.405,"EPHEMERIS_TYPE":0,"CLASSIFICATION_TYPE":"U","NORAD_CAT_ID":57391,"ELEMENT_SET_NO":999,"REV_AT_EPOCH":14891,"BSTAR":0.00088204,"MEAN_MOTION_DOT":0.00030759,"MEAN_MOTION_DDOT":0},{"OBJECT_NAME":"LEMUR-2-BASS","OBJECT_ID":"2023-174D","EPOCH":"2026-03-29T04:28:41.210976","MEAN_MOTION":15.40488925,"ECCENTRICITY":0.0008629,"INCLINATION":97.3863,"RA_OF_ASC_NODE":171.9404,"ARG_OF_PERICENTER":101.4056,"MEAN_ANOMALY":258.816,"EPHEMERIS_TYPE":0,"CLASSIFICATION_TYPE":"U","NORAD_CAT_ID":58259,"ELEMENT_SET_NO":999,"REV_AT_EPOCH":13303,"BSTAR":0.00060945,"MEAN_MOTION_DOT":0.00024704,"MEAN_MOTION_DDOT":0}]
