LEMUR-1                 
1 40044U 14033AL  26088.18109362  .00002983  00000+0  34988-3 0  9993
2 40044  97.7751 239.8315 0048033 342.1770  17.7758 14.84896245633595
LEMUR-2-GREENBERG       
1 42837U 17042N   26088.03821281  .00021088  00000+0  75609-3 0  9995
2 42837  97.3793 269.1944 0008077 289.6224  70.4144 15.28713065476133
LEMUR-2-ANDIS           
1 42838U 17042P   26087.97079405  .00026213  00000+0  86210-3 0  9996
2 42838  97.3673 269.0721 0008386 290.5432  69.4909 15.31474135476164
LEMUR-2-MONSON          
1 42839U 17042Q   26088.01122905  .00018507  00000+0  72869-3 0  9999
2 42839  97.4048 269.2483 0005736 275.3292  84.7292 15.25653737475939
LEMUR-2-FURIAUS         
1 42840U 17042R   26087.96844037  .00026712  00000+0  10018-2 0  9995
2 42840  97.3756 267.2740 0006799 348.6881  11.4204 15.27189754475955
LEMUR-2-PETERG          
1 42841U 17042S   26087.77455779  .00027311  00000+0  92468-3 0  9992
2 42841  97.3989 272.8737 0003240 257.6169 102.4709 15.30554708476128
LEMUR-2-DEMBITZ         
1 42842U 17042T   26088.06431700  .00022319  00000+0  82548-3 0  9995
2 42842  97.3815 270.3073 0005885 302.6570  57.4101 15.27692962476101
LEMUR-2-ZACHARY         
1 42845U 17042W   26087.97937219  .00045390  00000+0  10038-2 0  9991
2 42845  97.3655 278.2840 0003096 300.4993  59.5949 15.43685183476807
LEMUR-2-JIN-LUEN        
1 43182U 18014C   26087.79182975  .00658614  17900-3  18991-2 0  9993
2 43182  97.5392  20.0114 0009868 141.8360 218.3615 15.92980067448499
LEMUR-2-KADI            
1 43184U 18014E   26087.77359069  .00135429  00000+0  11976-2 0  9992
2 43184  97.4640  13.6075 0005144 130.9770 229.1937 15.68205860448375
LEMUR-2-AMANDA-SVANTE   
1 48269U 21034B   26088.14726929  .00035252  00000+0  12256-2 0  9997
2 48269  97.5808 164.6008 0004103 155.8500 204.2933 15.29636298268803
LEMUR-2-SPECIAL-K       
1 48273U 21034F   26088.18806963  .00115446  00000+0  21523-2 0  9994
2 48273  97.5690 170.3791 0002295 193.6334 166.4855 15.48389101269256
LEMUR-2-EMBRIONOVIS     
1 56970U 23084AQ  26087.90216344  .00019211  00000+0  56165-3 0  9995
2 56970  97.6160 229.2090 0008357 235.0643 124.9815 15.35293296155352
LEMUR-2-MANO            
1 57390U 23100E   26088.02539295  .00196114  00000+0  18094-2 0  9994
2 57390  99.4495 117.0609 0006088 191.7397 168.3716 15.66947187149504
LEMUR-2-DEVERILL-M-T    
1 57391U 23100F   26087.94172633  .00030759  00000+0  88204-3 0  9997
2 57391  99.4562 103.7935 0005791 318.6748  41.4050 15.35838337148912
LEMUR-2-BASS            
1 58259U 23174D   26088.18658809  .00024704  00000+0  60945-3 0  9998
2 58259  97.3863 171.9404 0008629 101.4056 258.8160 15.40488925133031
